STARLINK-34064          
1 64114U 25110U   26068.05066674  .00013904  00000+0  48078-3 0  9997
2 64114  53.1596  29.8024 0000854  46.6386 313.4686 15.30194312 45786
2025-313BC              
1 67298U 25313BC  26068.18968176  .00075331  00000+0  26410-2 0  9997
2 67298  97.3985 144.8110 0008478 328.9209  31.1528 15.29126358  7890
